STARLINK-30975          
1 58446U 23183K   26068.26863387  .00000381  00000+0  23887-4 0  9992
2 58446  43.0011  43.6658 0001642 270.5537  89.5126 15.26744851126690
MESON-1                 
1 59131U 24043AK  26068.90019075  .00008544  00000+0  29748-3 0  9998
2 59131  97.5469 205.2839 0009545 227.1432 132.9007 15.29893494111890
